{"type": "FeatureCollection", "features": [ {"type": "Feature", "properties": {"norad_id": 37438, "name": "FENGYUN 1C DEB", "group": "fengyun-1c-debris", "lat": -75.85224202136135, "lon": 176.80510724586753, "alt_km": 837.6972298008632, "timestamp": "2025-12-21T14:40:48.205976+00:00", "meta": {"OBJECT_NAME": "FENGYUN 1C DEB", "OBJECT_ID": "1999-025EHG", "EPOCH": "2025-12-17T22:56:38.488128", "MEAN_MOTION": 14.1553014, "ECCENTRICITY": 0.0029006, "INCLINATION": 98.7424, "RA_OF_ASC_NODE": 30.8431, "ARG_OF_PERICENTER": 207.8952, "MEAN_ANOMALY": 152.0668, "EPHEMERIS_TYPE": 0, "CLASSIFICATION_TYPE": "U", "NORAD_CAT_ID": 37438, "ELEMENT_SET_NO": 999, "REV_AT_EPOCH": 60209, "BSTAR": 0.00055037209, "MEAN_MOTION_DOT": 1.037e-05, "MEAN_MOTION_DDOT": 0}, "tle": {"line1": "1 37438U 99025EHG 25351.95600102  .00001037  00000+0  55037-3 0  9992", "line2": "2 37438  98.7424  30.8431 0029006 207.8952 152.0668 14.15530140602099"}}, "geometry": {"type": "Point", "coordinates": [176.80510724586753, -75.85224202136135]}}, {"type": "Feature", "properties": {"norad_id": 37441, "name": "FENGYUN 1C DEB", "group": "fengyun-1c-debris", "lat": -44.090971880960296, "lon": 12.31022985360165, "alt_km": 1591.450241859824, "timestamp": "2025-12-21T14:40:48.205986+00:00", "meta": {"OBJECT_NAME": "FENGYUN 1C DEB", "OBJECT_ID": "1999-025EHK", "EPOCH": "2025-12-20T19:16:48.855936", "MEAN_MOTION": 13.14245477, "ECCENTRICITY": 0.05088557, "INCLINATION": 99.146, "RA_OF_ASC_NODE": 200.5877, "ARG_OF_PERICENTER": 35.6, "MEAN_ANOMALY": 327.7968, "EPHEMERIS_TYPE": 0, "CLASSIFICATION_TYPE": "U", "NORAD_CAT_ID": 37441, "ELEMENT_SET_NO": 999, "REV_AT_EPOCH": 82278, "BSTAR": 0.001561327, "MEAN_MOTION_DOT": 1.077e-05, "MEAN_MOTION_DDOT": 0}, "tle": {"line1": "1 37441U 99025EHK 25354.80334324  .00001077  00000+0  15613-2 0  9992", "line2": "2 37441  99.1460 200.5877 0508855  35.6000 327.7968 13.14245477822781"}}, "geometry": {"type": "Point", "coordinates": [12.31022985360165, -44.090971880960296]}}, {"type": "Feature", "properties": {"norad_id": 37444, "name": "FENGYUN 1C DEB", "group": "fengyun-1c-debris", "lat": 2.9761949015909854, "lon": 76.32512725097898, "alt_km": 600.7137771840107, "timestamp": "2025-12-21T14:40:48.205996+00:00", "meta": {"OBJECT_NAME": "FENGYUN 1C DEB", "OBJECT_ID": "1999-025EHN", "EPOCH": "2025-12-20T12:08:03.005376", "MEAN_MOTION": 14.48074147, "ECCENTRICITY": 0.02444689, "INCLINATION": 99.0826, "RA_OF_ASC_NODE": 75.6126, "ARG_OF_PERICENTER": 325.8336, "MEAN_ANOMALY": 32.7325, "EPHEMERIS_TYPE": 0, "CLASSIFICATION_TYPE": "U", "NORAD_CAT_ID": 37444, "ELEMENT_SET_NO": 999, "REV_AT_EPOCH": 65263, "BSTAR": 0.00037419966, "MEAN_MOTION_DOT": 1.964e-05, "MEAN_MOTION_DDOT": 0}, "tle": {"line1": "1 37444U 99025EHN 25354.50559034  .00001964  00000+0  37420-3 0  9995", "line2": "2 37444  99.0826  75.6126 0244468 325.8336  32.7325 14.48074147652637"}}, "geometry": {"type": "Point", "coordinates": [76.32512725097898, 2.9761949015909854]}}, {"type": "Feature", "properties": {"norad_id": 37448, "name": "FENGYUN 1C DEB", "group": "fengyun-1c-debris", "lat": 79.44495961541794, "lon": -57.996850404843755, "alt_km": 814.3827916547543, "timestamp": "2025-12-21T14:40:48.206006+00:00", "meta": {"OBJECT_NAME": "FENGYUN 1C DEB", "OBJECT_ID": "1999-025EHS", "EPOCH": "2025-12-17T09:50:38.631840", "MEAN_MOTION": 13.87103686, "ECCENTRICITY": 0.03062777, "INCLINATION": 99.3197, "RA_OF_ASC_NODE": 56.012, "ARG_OF_PERICENTER": 46.1638, "MEAN_ANOMALY": 316.4401, "EPHEMERIS_TYPE": 0, "CLASSIFICATION_TYPE": "U", "NORAD_CAT_ID": 37448, "ELEMENT_SET_NO": 999, "REV_AT_EPOCH": 62440, "BSTAR": 0.0010911098, "MEAN_MOTION_DOT": 1.811e-05, "MEAN_MOTION_DDOT": 0}, "tle": {"line1": "1 37448U 99025EHS 25351.41016935  .00001811  00000+0  10911-2 0  9990", "line2": "2 37448  99.3197  56.0120 0306277  46.1638 316.4401 13.87103686624401"}}, "geometry": {"type": "Point", "coordinates": [-57.996850404843755, 79.44495961541794]}}, {"type": "Feature", "properties": {"norad_id": 37460, "name": "FENGYUN 1C DEB", "group": "fengyun-1c-debris", "lat": 30.95836898914847, "lon": -3.5208381083047904, "alt_km": 746.736733514459, "timestamp": "2025-12-21T14:40:48.206017+00:00", "meta": {"OBJECT_NAME": "FENGYUN 1C DEB", "OBJECT_ID": "1999-025EJE", "EPOCH": "2025-12-08T10:53:05.307360", "MEAN_MOTION": 14.47840336, "ECCENTRICITY": 0.00565903, "INCLINATION": 98.3779, "RA_OF_ASC_NODE": 158.3686, "ARG_OF_PERICENTER": 303.3518, "MEAN_ANOMALY": 56.2265, "EPHEMERIS_TYPE": 0, "CLASSIFICATION_TYPE": "U", "NORAD_CAT_ID": 37460, "ELEMENT_SET_NO": 999, "REV_AT_EPOCH": 82427, "BSTAR": 0.0027403859, "MEAN_MOTION_DOT": 0.00010316, "MEAN_MOTION_DDOT": 0}, "tle": {"line1": "1 37460U 99025EJE 25342.45353365  .00010316  00000+0  27404-2 0  9994", "line2": "2 37460  98.3779 158.3686 0056590 303.3518  56.2265 14.47840336824279"}}, "geometry": {"type": "Point", "coordinates": [-3.5208381083047904, 30.95836898914847]}}, {"type": "Feature", "properties": {"norad_id": 37461, "name": "FENGYUN 1C DEB", "group": "fengyun-1c-debris", "lat": -70.10443168344575, "lon": 34.00877584251727, "alt_km": 1035.7833646611234, "timestamp": "2025-12-21T14:40:48.206027+00:00", "meta": {"OBJECT_NAME": "FENGYUN 1C DEB", "OBJECT_ID": "1999-025EJF", "EPOCH": "2025-11-27T22:25:56.122176", "MEAN_MOTION": 12.7907076, "ECCENTRICITY": 0.0667413, "INCLINATION": 99.8664, "RA_OF_ASC_NODE": 221.8984, "ARG_OF_PERICENTER": 359.7811, "MEAN_ANOMALY": 0.291, "EPHEMERIS_TYPE": 0, "CLASSIFICATION_TYPE": "U", "NORAD_CAT_ID": 37461, "ELEMENT_SET_NO": 999, "REV_AT_EPOCH": 51845, "BSTAR": 0.0053613, "MEAN_MOTION_DOT": 3.048e-05, "MEAN_MOTION_DDOT": 0}, "tle": {"line1": "1 37461U 99025EJF 25331.93467734  .00003048  00000+0  53613-2 0  9997", "line2": "2 37461  99.8664 221.8984 0667413 359.7811   0.2910 12.79070760518454"}}, "geometry": {"type": "Point", "coordinates": [34.00877584251727, -70.10443168344575]}}, {"type": "Feature", "properties": {"norad_id": 37464, "name": "FENGYUN 1C DEB", "group": "fengyun-1c-debris", "lat": 3.2060446327617917, "lon": -78.62592229333329, "alt_km": 1096.3406559479536, "timestamp": "2025-12-21T14:40:48.206038+00:00", "meta": {"OBJECT_NAME": "FENGYUN 1C DEB", "OBJECT_ID": "1999-025EJJ", "EPOCH": "2025-12-21T00:24:09.973440", "MEAN_MOTION": 13.46950437, "ECCENTRICITY": 0.04535226, "INCLINATION": 102.7158, "RA_OF_ASC_NODE": 281.3432, "ARG_OF_PERICENTER": 99.0927, "MEAN_ANOMALY": 266.1783, "EPHEMERIS_TYPE": 0, "CLASSIFICATION_TYPE": "U", "NORAD_CAT_ID": 37464, "ELEMENT_SET_NO": 999, "REV_AT_EPOCH": 61033, "BSTAR": 0.0023945622, "MEAN_MOTION_DOT": 2.662e-05, "MEAN_MOTION_DDOT": 0}, "tle": {"line1": "1 37464U 99025EJJ 25355.01678210  .00002662  00000+0  23946-2 0  9995", "line2": "2 37464 102.7158 281.3432 0453522  99.0927 266.1783 13.46950437610338"}}, "geometry": {"type": "Point", "coordinates": [-78.62592229333329, 3.2060446327617917]}}, {"type": "Feature", "properties": {"norad_id": 37470, "name": "FENGYUN 1C DEB", "group": "fengyun-1c-debris", "lat": -79.83750468726613, "lon": -98.27452784210868, "alt_km": 566.2133711324577, "timestamp": "2025-12-21T14:40:48.206048+00:00", "meta": {"OBJECT_NAME": "FENGYUN 1C DEB", "OBJECT_ID": "1999-025EJQ", "EPOCH": "2025-12-18T08:46:22.753632", "MEAN_MOTION": 15.02026596, "ECCENTRICITY": 7.634e-05, "INCLINATION": 98.6685, "RA_OF_ASC_NODE": 136.4328, "ARG_OF_PERICENTER": 312.8238, "MEAN_ANOMALY": 47.2919, "EPHEMERIS_TYPE": 0, "CLASSIFICATION_TYPE": "U", "NORAD_CAT_ID": 37470, "ELEMENT_SET_NO": 999, "REV_AT_EPOCH": 65546, "BSTAR": 0.0049334475, "MEAN_MOTION_DOT": 0.00065198, "MEAN_MOTION_DDOT": 0}, "tle": {"line1": "1 37470U 99025EJQ 25352.36554113  .00065198  00000+0  49334-2 0  9994", "line2": "2 37470  98.6685 136.4328 0000763 312.8238  47.2919 15.02026596655469"}}, "geometry": {"type": "Point", "coordinates": [-98.27452784210868, -79.83750468726613]}}, {"type": "Feature", "properties": {"norad_id": 37474, "name": "FENGYUN 1C DEB", "group": "fengyun-1c-debris", "lat": 76.55103152103882, "lon": 159.4707125544008, "alt_km": 554.4209096035383, "timestamp": "2025-12-21T14:40:48.206058+00:00", "meta": {"OBJECT_NAME": "FENGYUN 1C DEB", "OBJECT_ID": "1999-025EJU", "EPOCH": "2025-12-17T07:46:09.276672", "MEAN_MOTION": 14.7520815, "ECCENTRICITY": 0.01320065, "INCLINATION": 99.1653, "RA_OF_ASC_NODE": 197.0828, "ARG_OF_PERICENTER": 120.7322, "MEAN_ANOMALY": 240.6963, "EPHEMERIS_TYPE": 0, "CLASSIFICATION_TYPE": "U", "NORAD_CAT_ID": 37474, "ELEMENT_SET_NO": 999, "REV_AT_EPOCH": 62443, "BSTAR": 0.00094441555, "MEAN_MOTION_DOT": 7.29e-05, "MEAN_MOTION_DDOT": 0}, "tle": {"line1": "1 37474U 99025EJU 25351.32371848  .00007290  00000+0  94442-3 0  9995", "line2": "2 37474  99.1653 197.0828 0132006 120.7322 240.6963 14.75208150624436"}}, "geometry": {"type": "Point", "coordinates": [159.4707125544008, 76.55103152103882]}}, {"type": "Feature", "properties": {"norad_id": 37477, "name": "FENGYUN 1C DEB", "group": "fengyun-1c-debris", "lat": -28.80708293144915, "lon": 4.808162113218575, "alt_km": 841.0470266643697, "timestamp": "2025-12-21T14:40:48.206068+00:00", "meta": {"OBJECT_NAME": "FENGYUN 1C DEB", "OBJECT_ID": "1999-025EJX", "EPOCH": "2025-12-16T18:06:36.022176", "MEAN_MOTION": 14.19731482, "ECCENTRICITY": 0.00371355, "INCLINATION": 98.6057, "RA_OF_ASC_NODE": 355.3103, "ARG_OF_PERICENTER": 94.8392, "MEAN_ANOMALY": 265.7026, "EPHEMERIS_TYPE": 0, "CLASSIFICATION_TYPE": "U", "NORAD_CAT_ID": 37477, "ELEMENT_SET_NO": 999, "REV_AT_EPOCH": 81971, "BSTAR": 0.00055952668, "MEAN_MOTION_DOT": 1.15e-05, "MEAN_MOTION_DDOT": 0}, "tle": {"line1": "1 37477U 99025EJX 25350.75458359  .00001150  00000+0  55953-3 0  9990", "line2": "2 37477  98.6057 355.3103 0037135  94.8392 265.7026 14.19731482819713"}}, "geometry": {"type": "Point", "coordinates": [4.808162113218575, -28.80708293144915]}}]}